{
  "type": "FeatureCollection",
  "features": [
    {
      "type": "Feature",
      "properties": {
        "stasjon": "Adamselv",
        "display_name": "Adamselv (kartgrunnlag)"
      },
      "geometry": {
        "type": "Point",
        "coordinates": [
          26.69570593169768,
          70.40972446638716
        ]
      }
    },
    {
      "type": "Feature",
      "properties": {
        "stasjon": "Alta tra",
        "display_name": "Alta tra (Alta) (manuell koordinat)"
      },
      "geometry": {
        "type": "Point",
        "coordinates": [
          23.2721,
          69.9482
        ]
      }
    },
    {
      "type": "Feature",
      "properties": {
        "stasjon": "Arendal",
        "display_name": "Arendal stasjon, Møllebakken, Skytebanen, Barbu, Arendal, Agder, 4838, Norge"
      },
      "geometry": {
        "type": "Point",
        "coordinates": [
          8.7696311,
          58.4648499
        ]
      }
    },
    {
      "type": "Feature",
      "properties": {
        "stasjon": "Arendal Industrinett",
        "display_name": "Arendal Industrinett (manuell koordinat)"
      },
      "geometry": {
        "type": "Point",
        "coordinates": [
          8.718,
          58.4875
        ]
      }
    },
    {
      "type": "Feature",
      "properties": {
        "stasjon": "Arna",
        "display_name": "Arna, Ådnavegen, Arna, Bergen, Vestland, 5261, Norge"
      },
      "geometry": {
        "type": "Point",
        "coordinates": [
          5.465872,
          60.4200615
        ]
      }
    },
    {
      "type": "Feature",
      "properties": {
        "stasjon": "Aura",
        "display_name": "Aura (kartgrunnlag)"
      },
      "geometry": {
        "type": "Point",
        "coordinates": [
          8.52357968498045,
          62.664140836633166
        ]
      }
    },
    {
      "type": "Feature",
      "properties": {
        "stasjon": "Aurland2",
        "display_name": "Aurland 2 (manuell koordinat)"
      },
      "geometry": {
        "type": "Point",
        "coordinates": [
          7.37191,
          60.80332
        ]
      }
    },
    {
      "type": "Feature",
      "properties": {
        "stasjon": "Ballangen",
        "display_name": "Ballangen (kartgrunnlag)"
      },
      "geometry": {
        "type": "Point",
        "coordinates": [
          16.733262943348947,
          68.26123906335339
        ]
      }
    },
    {
      "type": "Feature",
      "properties": {
        "stasjon": "Balsfjord",
        "display_name": "Balsfjord (kartgrunnlag)"
      },
      "geometry": {
        "type": "Point",
        "coordinates": [
          19.205444381098022,
          69.19029237717892
        ]
      }
    },
    {
      "type": "Feature",
      "properties": {
        "stasjon": "Bamble",
        "display_name": "Bamble (kartgrunnlag)"
      },
      "geometry": {
        "type": "Point",
        "coordinates": [
          9.59536043235527,
          59.04044768954035
        ]
      }
    },
    {
      "type": "Feature",
      "properties": {
        "stasjon": "Bardufoss Transformatorstasjon",
        "display_name": "Bardufoss transformatorstasjon (manuell koordinat)"
      },
      "geometry": {
        "type": "Point",
        "coordinates": [
          18.509,
          69.0587
        ]
      }
    },
    {
      "type": "Feature",
      "properties": {
        "stasjon": "Bjerkreim",
        "display_name": "Bjerkreim (kartgrunnlag)"
      },
      "geometry": {
        "type": "Point",
        "coordinates": [
          5.9210624003690056,
          58.589922468196484
        ]
      }
    },
    {
      "type": "Feature",
      "properties": {
        "stasjon": "Blåfalli",
        "display_name": "Blåfalli (kartgrunnlag)"
      },
      "geometry": {
        "type": "Point",
        "coordinates": [
          6.009754566512007,
          59.86340233372589
        ]
      }
    },
    {
      "type": "Feature",
      "properties": {
        "stasjon": "Boltås",
        "display_name": "Boltås (kartgrunnlag)"
      },
      "geometry": {
        "type": "Point",
        "coordinates": [
          16.66434238566892,
          68.53084871115593
        ]
      }
    },
    {
      "type": "Feature",
      "properties": {
        "stasjon": "Brokke",
        "display_name": "Brokke (kartgrunnlag)"
      },
      "geometry": {
        "type": "Point",
        "coordinates": [
          7.510497690594326,
          59.123166131136365
        ]
      }
    },
    {
      "type": "Feature",
      "properties": {
        "stasjon": "Bærheim",
        "display_name": "Bærheim (kartgrunnlag)"
      },
      "geometry": {
        "type": "Point",
        "coordinates": [
          5.6942044433476475,
          58.88298798126405
        ]
      }
    },
    {
      "type": "Feature",
      "properties": {
        "stasjon": "Dale",
        "display_name": "Dale stasjon, Vaksdalsvegen, Dale, Vaksdal, Vestland, Norge"
      },
      "geometry": {
        "type": "Point",
        "coordinates": [
          5.815459,
          60.586395
        ]
      }
    },
    {
      "type": "Feature",
      "properties": {
        "stasjon": "Eidum",
        "display_name": "Eidum (kartgrunnlag)"
      },
      "geometry": {
        "type": "Point",
        "coordinates": [
          11.00394866912433,
          63.44784377171784
        ]
      }
    },
    {
      "type": "Feature",
      "properties": {
        "stasjon": "Ertsmyra",
        "display_name": "Ertsmyra (kartgrunnlag)"
      },
      "geometry": {
        "type": "Point",
        "coordinates": [
          6.75511131811346,
          58.67120329936556
        ]
      }
    },
    {
      "type": "Feature",
      "properties": {
        "stasjon": "Fagrafjell",
        "display_name": "Fagrafjell (kartgrunnlag)"
      },
      "geometry": {
        "type": "Point",
        "coordinates": [
          5.762082508675961,
          58.78887890280912
        ]
      }
    },
    {
      "type": "Feature",
      "properties": {
        "stasjon": "Fana Transformatorstasjon",
        "display_name": "Fana transformatorstasjon (manuell koordinat)"
      },
      "geometry": {
        "type": "Point",
        "coordinates": [
          5.334,
          60.3015
        ]
      }
    },
    {
      "type": "Feature",
      "properties": {
        "stasjon": "Flesaker",
        "display_name": "Flesaker (kartgrunnlag)"
      },
      "geometry": {
        "type": "Point",
        "coordinates": [
          9.844336072308698,
          59.71999496478027
        ]
      }
    },
    {
      "type": "Feature",
      "properties": {
        "stasjon": "Follo",
        "display_name": "Follo (kartgrunnlag)"
      },
      "geometry": {
        "type": "Point",
        "coordinates": [
          10.782531362357613,
          59.728692588105545
        ]
      }
    },
    {
      "type": "Feature",
      "properties": {
        "stasjon": "Fortun",
        "display_name": "Fortun (kartgrunnlag)"
      },
      "geometry": {
        "type": "Point",
        "coordinates": [
          7.701380412658039,
          61.505698876796906
        ]
      }
    },
    {
      "type": "Feature",
      "properties": {
        "stasjon": "Frogner",
        "display_name": "Frogner, Stasjonsbakken, Melvold, Frogner, Lillestrøm, Akershus, 2016, Norge"
      },
      "geometry": {
        "type": "Point",
        "coordinates": [
          11.1031812,
          60.022807
        ]
      }
    },
    {
      "type": "Feature",
      "properties": {
        "stasjon": "Fræna",
        "display_name": "Fræna (kartgrunnlag)"
      },
      "geometry": {
        "type": "Point",
        "coordinates": [
          7.111159750853125,
          62.85914644930167
        ]
      }
    },
    {
      "type": "Feature",
      "properties": {
        "stasjon": "Furuset",
        "display_name": "Furuset (kartgrunnlag)"
      },
      "geometry": {
        "type": "Point",
        "coordinates": [
          10.883705916763459,
          59.94416641549855
        ]
      }
    },
    {
      "type": "Feature",
      "properties": {
        "stasjon": "Fåberg",
        "display_name": "Fåberg stasjon, Stasjonsvegen, Tune, Fåberg, Lillehammer, Innlandet, 2625, Norge"
      },
      "geometry": {
        "type": "Point",
        "coordinates": [
          10.4051535,
          61.1709118
        ]
      }
    },
    {
      "type": "Feature",
      "properties": {
        "stasjon": "Førre",
        "display_name": "Førre (kartgrunnlag)"
      },
      "geometry": {
        "type": "Point",
        "coordinates": [
          6.603820853058482,
          59.32753578414808
        ]
      }
    },
    {
      "type": "Feature",
      "properties": {
        "stasjon": "Grenland",
        "display_name": "Grenland (kartgrunnlag)"
      },
      "geometry": {
        "type": "Point",
        "coordinates": [
          9.474554208437468,
          59.12853724670371
        ]
      }
    },
    {
      "type": "Feature",
      "properties": {
        "stasjon": "Hamang",
        "display_name": "Hamang (kartgrunnlag)"
      },
      "geometry": {
        "type": "Point",
        "coordinates": [
          10.498511001477969,
          59.89685206890825
        ]
      }
    },
    {
      "type": "Feature",
      "properties": {
        "stasjon": "Hasle",
        "display_name": "Hasle (kartgrunnlag)"
      },
      "geometry": {
        "type": "Point",
        "coordinates": [
          11.155002361910748,
          59.31418458831606
        ]
      }
    },
    {
      "type": "Feature",
      "properties": {
        "stasjon": "Haugsvær",
        "display_name": "Haugsvær (kartgrunnlag)"
      },
      "geometry": {
        "type": "Point",
        "coordinates": [
          5.527142526559735,
          60.88926497714842
        ]
      }
    },
    {
      "type": "Feature",
      "properties": {
        "stasjon": "Hinnøy",
        "display_name": "Hinnøy (kartgrunnlag)"
      },
      "geometry": {
        "type": "Point",
        "coordinates": [
          15.499998046797268,
          68.68322892720386
        ]
      }
    },
    {
      "type": "Feature",
      "properties": {
        "stasjon": "Hof",
        "display_name": "Hof (kartgrunnlag)"
      },
      "geometry": {
        "type": "Point",
        "coordinates": [
          10.105669697906594,
          59.5761316418202
        ]
      }
    },
    {
      "type": "Feature",
      "properties": {
        "stasjon": "Hofstad",
        "display_name": "Hofstad (kartgrunnlag)"
      },
      "geometry": {
        "type": "Point",
        "coordinates": [
          10.540450622264826,
          64.16243480765309
        ]
      }
    },
    {
      "type": "Feature",
      "properties": {
        "stasjon": "Holen",
        "display_name": "Hølen, E 6, Klokkerud, Hølen, Vestby, Akershus, 1550, Norge"
      },
      "geometry": {
        "type": "Point",
        "coordinates": [
          10.7239607,
          59.5495913
        ]
      }
    },
    {
      "type": "Feature",
      "properties": {
        "stasjon": "Humleberget",
        "display_name": "Humleberget (manuell koordinat)"
      },
      "geometry": {
        "type": "Point",
        "coordinates": [
          5.7665,
          58.8505
        ]
      }
    },
    {
      "type": "Feature",
      "properties": {
        "stasjon": "Husnes",
        "display_name": "Husnes (kartgrunnlag)"
      },
      "geometry": {
        "type": "Point",
        "coordinates": [
          5.765852372375921,
          59.862784738615105
        ]
      }
    },
    {
      "type": "Feature",
      "properties": {
        "stasjon": "Hyggevatn",
        "display_name": "Hyggevatn (manuell koordinat)"
      },
      "geometry": {
        "type": "Point",
        "coordinates": [
          23.72552,
          70.68064
        ]
      }
    },
    {
      "type": "Feature",
      "properties": {
        "stasjon": "Høyanger",
        "display_name": "Høyanger (kartgrunnlag)"
      },
      "geometry": {
        "type": "Point",
        "coordinates": [
          6.151648331818949,
          61.2442706937049
        ]
      }
    },
    {
      "type": "Feature",
      "properties": {
        "stasjon": "Kilbotn",
        "display_name": "Kilbotn (kartgrunnlag)"
      },
      "geometry": {
        "type": "Point",
        "coordinates": [
          16.509272809578018,
          68.71518379313869
        ]
      }
    },
    {
      "type": "Feature",
      "properties": {
        "stasjon": "Kirkenes",
        "display_name": "Kirkenes (kartgrunnlag)"
      },
      "geometry": {
        "type": "Point",
        "coordinates": [
          30.03403130535382,
          69.72270354519604
        ]
      }
    },
    {
      "type": "Feature",
      "properties": {
        "stasjon": "Kjelland",
        "display_name": "Kjelland (kartgrunnlag)"
      },
      "geometry": {
        "type": "Point",
        "coordinates": [
          6.032866090851344,
          58.49484021654202
        ]
      }
    },
    {
      "type": "Feature",
      "properties": {
        "stasjon": "Klæbu",
        "display_name": "Klæbu (kartgrunnlag)"
      },
      "geometry": {
        "type": "Point",
        "coordinates": [
          10.417150767070545,
          63.326583705287625
        ]
      }
    },
    {
      "type": "Feature",
      "properties": {
        "stasjon": "Kobbvatnet",
        "display_name": "Kobbvatnet (kartgrunnlag)"
      },
      "geometry": {
        "type": "Point",
        "coordinates": [
          15.987401376040973,
          67.63722379198826
        ]
      }
    },
    {
      "type": "Feature",
      "properties": {
        "stasjon": "Kollsnes",
        "display_name": "Kollsnes (kartgrunnlag)"
      },
      "geometry": {
        "type": "Point",
        "coordinates": [
          4.844413605586241,
          60.55067362616698
        ]
      }
    },
    {
      "type": "Feature",
      "properties": {
        "stasjon": "Kolsvik",
        "display_name": "Kolsvik (kartgrunnlag)"
      },
      "geometry": {
        "type": "Point",
        "coordinates": [
          12.79225446474407,
          65.20440512867613
        ]
      }
    },
    {
      "type": "Feature",
      "properties": {
        "stasjon": "Kristiansand",
        "display_name": "Kristiansand stasjon, Vestre Strandgate, Gravane, Kvadraturen, Kristiansand, Agder, 4612, Norge"
      },
      "geometry": {
        "type": "Point",
        "coordinates": [
          7.9881869,
          58.1456045
        ]
      }
    },
    {
      "type": "Feature",
      "properties": {
        "stasjon": "Kvandal",
        "display_name": "Kvandal (kartgrunnlag)"
      },
      "geometry": {
        "type": "Point",
        "coordinates": [
          17.610520177877387,
          68.57723024132423
        ]
      }
    },
    {
      "type": "Feature",
      "properties": {
        "stasjon": "Kvinesdal",
        "display_name": "Kvinesdal (kartgrunnlag)"
      },
      "geometry": {
        "type": "Point",
        "coordinates": [
          6.845798904658028,
          58.27658035070142
        ]
      }
    },
    {
      "type": "Feature",
      "properties": {
        "stasjon": "Kvitfossen",
        "display_name": "Kvitfossen (kartgrunnlag)"
      },
      "geometry": {
        "type": "Point",
        "coordinates": [
          14.650840114178015,
          68.3268824381468
        ]
      }
    },
    {
      "type": "Feature",
      "properties": {
        "stasjon": "Kvitnes",
        "display_name": "Kvitnes (kartgrunnlag)"
      },
      "geometry": {
        "type": "Point",
        "coordinates": [
          16.598320819508007,
          68.62956933235577
        ]
      }
    },
    {
      "type": "Feature",
      "properties": {
        "stasjon": "Kårstø",
        "display_name": "Kårstø (kartgrunnlag)"
      },
      "geometry": {
        "type": "Point",
        "coordinates": [
          5.505494436850843,
          59.27822296910875
        ]
      }
    },
    {
      "type": "Feature",
      "properties": {
        "stasjon": "Leirdøla",
        "display_name": "Leirdøla (kartgrunnlag)"
      },
      "geometry": {
        "type": "Point",
        "coordinates": [
          7.245854291850852,
          61.43810034545789
        ]
      }
    },
    {
      "type": "Feature",
      "properties": {
        "stasjon": "Lindås",
        "display_name": "Lindås (kartgrunnlag)"
      },
      "geometry": {
        "type": "Point",
        "coordinates": [
          5.042206159111615,
          60.79545413563989
        ]
      }
    },
    {
      "type": "Feature",
      "properties": {
        "stasjon": "Lio",
        "display_name": "Lio (kartgrunnlag)"
      },
      "geometry": {
        "type": "Point",
        "coordinates": [
          7.938437266746529,
          59.46326075886191
        ]
      }
    },
    {
      "type": "Feature",
      "properties": {
        "stasjon": "Litle Sotra",
        "display_name": "Litle Sotra (kartgrunnlag)"
      },
      "geometry": {
        "type": "Point",
        "coordinates": [
          5.132444646511292,
          60.36566736929424
        ]
      }
    },
    {
      "type": "Feature",
      "properties": {
        "stasjon": "Marka",
        "display_name": "Marka (kartgrunnlag)"
      },
      "geometry": {
        "type": "Point",
        "coordinates": [
          13.290265705683845,
          65.85201584662478
        ]
      }
    },
    {
      "type": "Feature",
      "properties": {
        "stasjon": "Melbu",
        "display_name": "Melbu (kartgrunnlag)"
      },
      "geometry": {
        "type": "Point",
        "coordinates": [
          14.851696268269114,
          68.51059989526128
        ]
      }
    },
    {
      "type": "Feature",
      "properties": {
        "stasjon": "Mestervik",
        "display_name": "Mestervik (kartgrunnlag)"
      },
      "geometry": {
        "type": "Point",
        "coordinates": [
          18.88389672285687,
          69.33782335624716
        ]
      }
    },
    {
      "type": "Feature",
      "properties": {
        "stasjon": "Midtfjellet",
        "display_name": "Midtfjellet (kartgrunnlag)"
      },
      "geometry": {
        "type": "Point",
        "coordinates": [
          5.395903231663862,
          59.93134552939008
        ]
      }
    },
    {
      "type": "Feature",
      "properties": {
        "stasjon": "Minne",
        "display_name": "Minne (kartgrunnlag)"
      },
      "geometry": {
        "type": "Point",
        "coordinates": [
          11.23225786640332,
          60.3887736099228
        ]
      }
    },
    {
      "type": "Feature",
      "properties": {
        "stasjon": "Moskog",
        "display_name": "Moskog (kartgrunnlag)"
      },
      "geometry": {
        "type": "Point",
        "coordinates": [
          6.016001342157958,
          61.44562875661882
        ]
      }
    },
    {
      "type": "Feature",
      "properties": {
        "stasjon": "Namsos",
        "display_name": "Namsos (kartgrunnlag)"
      },
      "geometry": {
        "type": "Point",
        "coordinates": [
          11.776188160014152,
          64.47814979724681
        ]
      }
    },
    {
      "type": "Feature",
      "properties": {
        "stasjon": "Narvik",
        "display_name": "Narvik, Stasjonsveien, Taraldsvik, Narvik, Nordland, 8517, Norge"
      },
      "geometry": {
        "type": "Point",
        "coordinates": [
          17.4411132,
          68.4415503
        ]
      }
    },
    {
      "type": "Feature",
      "properties": {
        "stasjon": "Nedre Røssåga",
        "display_name": "Nedre Røssåga (kartgrunnlag)"
      },
      "geometry": {
        "type": "Point",
        "coordinates": [
          13.783520594576954,
          66.05121635919133
        ]
      }
    },
    {
      "type": "Feature",
      "properties": {
        "stasjon": "Nedre Vinstra",
        "display_name": "Nedre Vinstra (kartgrunnlag)"
      },
      "geometry": {
        "type": "Point",
        "coordinates": [
          9.803875659171045,
          61.577381769482905
        ]
      }
    },
    {
      "type": "Feature",
      "properties": {
        "stasjon": "Nes GE",
        "display_name": "Nes GE (manuell koordinat)"
      },
      "geometry": {
        "type": "Point",
        "coordinates": [
          11.5588,
          60.2095
        ]
      }
    },
    {
      "type": "Feature",
      "properties": {
        "stasjon": "Nesflaten",
        "display_name": "Nesflaten (kartgrunnlag)"
      },
      "geometry": {
        "type": "Point",
        "coordinates": [
          6.81535655405355,
          59.65000244134043
        ]
      }
    },
    {
      "type": "Feature",
      "properties": {
        "stasjon": "Niingen",
        "display_name": "Niingen (manuell koordinat)"
      },
      "geometry": {
        "type": "Point",
        "coordinates": [
          17.02819700165318,
          68.53700300658687
        ]
      }
    },
    {
      "type": "Feature",
      "properties": {
        "stasjon": "Novle",
        "display_name": "Novle (manuell koordinat)"
      },
      "geometry": {
        "type": "Point",
        "coordinates": [
          6.8805,
          59.8383
        ]
      }
    },
    {
      "type": "Feature",
      "properties": {
        "stasjon": "Ogndal",
        "display_name": "Ogndal (kartgrunnlag)"
      },
      "geometry": {
        "type": "Point",
        "coordinates": [
          11.619943745006125,
          64.02777214324936
        ]
      }
    },
    {
      "type": "Feature",
      "properties": {
        "stasjon": "Orkdal",
        "display_name": "Orkdal (kartgrunnlag)"
      },
      "geometry": {
        "type": "Point",
        "coordinates": [
          9.802926587128072,
          63.246074543483026
        ]
      }
    },
    {
      "type": "Feature",
      "properties": {
        "stasjon": "Porsgrunn",
        "display_name": "Porsgrunn, Porsgrunn terminal, Jønnholt, Leirkup, Porsgrunn, Telemark, 3915, Norge"
      },
      "geometry": {
        "type": "Point",
        "coordinates": [
          9.6585971,
          59.1400961
        ]
      }
    },
    {
      "type": "Feature",
      "properties": {
        "stasjon": "Rana",
        "display_name": "Mo i Rana / Måefie, Ole Tobias Olsens gate, Langneset, Mo i Rana, Rana, Nordland, 8624, Norge"
      },
      "geometry": {
        "type": "Point",
        "coordinates": [
          14.1335001,
          66.3096077
        ]
      }
    },
    {
      "type": "Feature",
      "properties": {
        "stasjon": "Ringerike",
        "display_name": "Forsvarets stasjon Ringerike, Marigård, Ringerike, Buskerud, Norge"
      },
      "geometry": {
        "type": "Point",
        "coordinates": [
          10.291204,
          60.222566
        ]
      }
    },
    {
      "type": "Feature",
      "properties": {
        "stasjon": "Rjukan",
        "display_name": "Rjukan, Såheimsveien, Rjukan fabrikker, Østre Bøen, Rjukan, Tinn, Telemark, 3660, Norge"
      },
      "geometry": {
        "type": "Point",
        "coordinates": [
          8.583652,
          59.8771065
        ]
      }
    },
    {
      "type": "Feature",
      "properties": {
        "stasjon": "Rød",
        "display_name": "Rød (kartgrunnlag)"
      },
      "geometry": {
        "type": "Point",
        "coordinates": [
          9.544284802177907,
          59.272877551747264
        ]
      }
    },
    {
      "type": "Feature",
      "properties": {
        "stasjon": "Røldal",
        "display_name": "Røldal (kartgrunnlag)"
      },
      "geometry": {
        "type": "Point",
        "coordinates": [
          6.816590919320403,
          59.82133879944846
        ]
      }
    },
    {
      "type": "Feature",
      "properties": {
        "stasjon": "Røykås",
        "display_name": "Røykås (kartgrunnlag)"
      },
      "geometry": {
        "type": "Point",
        "coordinates": [
          10.933815002161605,
          59.93022509273238
        ]
      }
    },
    {
      "type": "Feature",
      "properties": {
        "stasjon": "Salten transformatorstasjon",
        "display_name": "Salten transformatorstasjon (manuell koordinat)"
      },
      "geometry": {
        "type": "Point",
        "coordinates": [
          15.6145,
          67.378
        ]
      }
    },
    {
      "type": "Feature",
      "properties": {
        "stasjon": "Samnanger",
        "display_name": "Samnanger (kartgrunnlag)"
      },
      "geometry": {
        "type": "Point",
        "coordinates": [
          5.840817222424526,
          60.39779505056462
        ]
      }
    },
    {
      "type": "Feature",
      "properties": {
        "stasjon": "Sautso",
        "display_name": "Sautso (kartgrunnlag)"
      },
      "geometry": {
        "type": "Point",
        "coordinates": [
          23.802119476632374,
          69.71959419126219
        ]
      }
    },
    {
      "type": "Feature",
      "properties": {
        "stasjon": "Sildvik",
        "display_name": "Rombak - Ruoppat, Sildvikveien, Kuberget, Narvik, Nordland, 8519, Norge"
      },
      "geometry": {
        "type": "Point",
        "coordinates": [
          17.7910714,
          68.4037757
        ]
      }
    },
    {
      "type": "Feature",
      "properties": {
        "stasjon": "Skaidi",
        "display_name": "Skaidi (kartgrunnlag)"
      },
      "geometry": {
        "type": "Point",
        "coordinates": [
          24.54246513286043,
          70.43326695140196
        ]
      }
    },
    {
      "type": "Feature",
      "properties": {
        "stasjon": "Smestad",
        "display_name": "Smestad (kartgrunnlag)"
      },
      "geometry": {
        "type": "Point",
        "coordinates": [
          10.66767113400373,
          59.93494129397492
        ]
      }
    },
    {
      "type": "Feature",
      "properties": {
        "stasjon": "Snilldal",
        "display_name": "Snilldal (kartgrunnlag)"
      },
      "geometry": {
        "type": "Point",
        "coordinates": [
          9.60916086287106,
          63.399281290249945
        ]
      }
    },
    {
      "type": "Feature",
      "properties": {
        "stasjon": "Sogn",
        "display_name": "Sogn (kartgrunnlag)"
      },
      "geometry": {
        "type": "Point",
        "coordinates": [
          10.720672602563093,
          59.95770117585586
        ]
      }
    },
    {
      "type": "Feature",
      "properties": {
        "stasjon": "Sortland",
        "display_name": "Sortland (kartgrunnlag)"
      },
      "geometry": {
        "type": "Point",
        "coordinates": [
          15.384255290638405,
          68.71201707428938
        ]
      }
    },
    {
      "type": "Feature",
      "properties": {
        "stasjon": "Spanne",
        "display_name": "Spanne (kartgrunnlag)"
      },
      "geometry": {
        "type": "Point",
        "coordinates": [
          5.334879300860679,
          59.37899646000803
        ]
      }
    },
    {
      "type": "Feature",
      "properties": {
        "stasjon": "Stokmarknes",
        "display_name": "Stokmarknes (kartgrunnlag)"
      },
      "geometry": {
        "type": "Point",
        "coordinates": [
          14.990129993084773,
          68.55246253658893
        ]
      }
    },
    {
      "type": "Feature",
      "properties": {
        "stasjon": "Stord",
        "display_name": "Stord (kartgrunnlag)"
      },
      "geometry": {
        "type": "Point",
        "coordinates": [
          5.413089127435466,
          59.78725774438767
        ]
      }
    },
    {
      "type": "Feature",
      "properties": {
        "stasjon": "Strinda",
        "display_name": "Strinda (kartgrunnlag)"
      },
      "geometry": {
        "type": "Point",
        "coordinates": [
          10.438730913640345,
          63.39176249622272
        ]
      }
    },
    {
      "type": "Feature",
      "properties": {
        "stasjon": "Stølaheia",
        "display_name": "Stølaheia (kartgrunnlag)"
      },
      "geometry": {
        "type": "Point",
        "coordinates": [
          5.652175122434436,
          58.96307494730643
        ]
      }
    },
    {
      "type": "Feature",
      "properties": {
        "stasjon": "Surna",
        "display_name": "Surna (kartgrunnlag)"
      },
      "geometry": {
        "type": "Point",
        "coordinates": [
          9.009449515231264,
          62.99638663839059
        ]
      }
    },
    {
      "type": "Feature",
      "properties": {
        "stasjon": "Svartisen",
        "display_name": "Svartisen (kartgrunnlag)"
      },
      "geometry": {
        "type": "Point",
        "coordinates": [
          13.912006204116398,
          66.72961646018842
        ]
      }
    },
    {
      "type": "Feature",
      "properties": {
        "stasjon": "Sylling",
        "display_name": "Sylling (kartgrunnlag)"
      },
      "geometry": {
        "type": "Point",
        "coordinates": [
          10.214758094412566,
          59.86749458195046
        ]
      }
    },
    {
      "type": "Feature",
      "properties": {
        "stasjon": "T35",
        "display_name": "T35 (Herøya, Porsgrunn) (manuell koordinat)"
      },
      "geometry": {
        "type": "Point",
        "coordinates": [
          9.63427,
          59.11639
        ]
      }
    },
    {
      "type": "Feature",
      "properties": {
        "stasjon": "Tegneby",
        "display_name": "Tegneby (kartgrunnlag)"
      },
      "geometry": {
        "type": "Point",
        "coordinates": [
          10.739130093358563,
          59.51613729743573
        ]
      }
    },
    {
      "type": "Feature",
      "properties": {
        "stasjon": "Trollheim",
        "display_name": "Trollheim (kartgrunnlag)"
      },
      "geometry": {
        "type": "Point",
        "coordinates": [
          9.020239948187411,
          63.006522113308186
        ]
      }
    },
    {
      "type": "Feature",
      "properties": {
        "stasjon": "Tunnsjødal",
        "display_name": "Tunnsjødal (kartgrunnlag)"
      },
      "geometry": {
        "type": "Point",
        "coordinates": [
          12.834872400721109,
          64.70377582917814
        ]
      }
    },
    {
      "type": "Feature",
      "properties": {
        "stasjon": "Tveiten",
        "display_name": "Tveiten (kartgrunnlag)"
      },
      "geometry": {
        "type": "Point",
        "coordinates": [
          10.381214232783394,
          59.32977620275053
        ]
      }
    },
    {
      "type": "Feature",
      "properties": {
        "stasjon": "Ulven",
        "display_name": "Ulven (kartgrunnlag)"
      },
      "geometry": {
        "type": "Point",
        "coordinates": [
          10.811170471506726,
          59.92191237506248
        ]
      }
    },
    {
      "type": "Feature",
      "properties": {
        "stasjon": "Vang",
        "display_name": "Vang (kartgrunnlag)"
      },
      "geometry": {
        "type": "Point",
        "coordinates": [
          11.267279292120397,
          60.83575805658488
        ]
      }
    },
    {
      "type": "Feature",
      "properties": {
        "stasjon": "Varangerbotn",
        "display_name": "Varangerbotn (kartgrunnlag)"
      },
      "geometry": {
        "type": "Point",
        "coordinates": [
          28.541513688936508,
          70.17148121337218
        ]
      }
    },
    {
      "type": "Feature",
      "properties": {
        "stasjon": "Vardal",
        "display_name": "Vardal (kartgrunnlag)"
      },
      "geometry": {
        "type": "Point",
        "coordinates": [
          10.564888176309438,
          60.802021235821336
        ]
      }
    },
    {
      "type": "Feature",
      "properties": {
        "stasjon": "Viklandet",
        "display_name": "Viklandet (kartgrunnlag)"
      },
      "geometry": {
        "type": "Point",
        "coordinates": [
          8.497918096769004,
          62.68888195201076
        ]
      }
    },
    {
      "type": "Feature",
      "properties": {
        "stasjon": "Vinje",
        "display_name": "Vinje (kartgrunnlag)"
      },
      "geometry": {
        "type": "Point",
        "coordinates": [
          7.851879179645363,
          59.624668533830636
        ]
      }
    },
    {
      "type": "Feature",
      "properties": {
        "stasjon": "Vinnelys",
        "display_name": "Vinnelys (kartgrunnlag)"
      },
      "geometry": {
        "type": "Point",
        "coordinates": [
          21.311534715976126,
          69.6340134049526
        ]
      }
    },
    {
      "type": "Feature",
      "properties": {
        "stasjon": "Vågåmo",
        "display_name": "Vågåmo (kartgrunnlag)"
      },
      "geometry": {
        "type": "Point",
        "coordinates": [
          9.081767748053462,
          61.88124436435195
        ]
      }
    },
    {
      "type": "Feature",
      "properties": {
        "stasjon": "Åfjord",
        "display_name": "Åfjord (kartgrunnlag)"
      },
      "geometry": {
        "type": "Point",
        "coordinates": [
          10.2215649542643,
          63.89171386306289
        ]
      }
    },
    {
      "type": "Feature",
      "properties": {
        "stasjon": "Ålfoten",
        "display_name": "Ålfoten (kartgrunnlag)"
      },
      "geometry": {
        "type": "Point",
        "coordinates": [
          5.5488066910014755,
          61.82885971909765
        ]
      }
    },
    {
      "type": "Feature",
      "properties": {
        "stasjon": "Ørskog",
        "display_name": "Ørskog (kartgrunnlag)"
      },
      "geometry": {
        "type": "Point",
        "coordinates": [
          6.865554366888013,
          62.473139558573756
        ]
      }
    },
    {
      "type": "Feature",
      "properties": {
        "stasjon": "Ørsta",
        "display_name": "Ørsta (kartgrunnlag)"
      },
      "geometry": {
        "type": "Point",
        "coordinates": [
          6.260062457511067,
          62.15724497100848
        ]
      }
    }
  ]
}
